0 COSMOS 252 DEB
1 18490U 68097EN  13280.83218988  .00001183  00000-0  28276-3 0  6968
2 18490 062.7431 047.2360 0572815 351.8108 082.6853 13.89327976686763
0 COSMOS 252 DEB
1 18490U 68097EN  13282.84841733  .00001377  00000-0  32322-3 0  6974
2 18490 062.7434 041.4893 0572970 352.1106 087.0275 13.89343247687045
0 COSMOS 252 DEB
1 18490U 68097EN  13286.88148387  .00002672  00000-0  59561-3 0  6992
2 18490 062.7440 029.9949 0573126 352.7075 099.0231 13.89353763687601
0 COSMOS 252 DEB
1 18490U 68097EN  13289.75744336  .00003587  00000-0  78679-3 0  7007
2 18490 062.7443 021.7972 0573376 353.1369 083.7296 13.89373085688003
0 COSMOS 252 DEB
1 18490U 68097EN  13292.34459498  .00003305  00000-0  72649-3 0  7018
2 18490 062.7439 014.4229 0573566 353.5219 064.0611 13.89386874688363
0 COSMOS 252 DEB
1 18490U 68097EN  13294.79860193  .00004325  00000-0  93912-3 0  7027
2 18490 062.7434 007.4271 0573794 353.8840 098.5658 13.89401674688700
